IRIDIUM 171             
1 43929U 19002H   25246.90109787 -.00000005  00000+0 -87244-5 0  9995
2 43929  86.3958 113.5568 0002266  83.8410 276.3044 14.34218216347920
IRIDIUM 170             
1 43930U 19002J   25246.61330664  .00001627  00000+0  25405-3 0  9993
2 43930  86.6071 113.4151 0002419  89.1111 271.0383 14.72263825357090
IRIDIUM 167             
1 43931U 19002K   25246.75521999  .00000027  00000+0  25486-5 0  9996
2 43931  86.3948 113.3632 0002520  89.8432 270.3053 14.34217585347905
IRIDIUM 181             
1 56726U 23068S   25246.84539071  .00000552  00000+0  15816-3 0  9996
2 56726  86.4582 176.4118 0002711  74.7647 285.3853 14.43306058121131
IRIDIUM 177             
1 56727U 23068T   25246.69174271  .00002152  00000+0  27979-3 0  9998
2 56727  86.1929 104.8680 0002763  85.9269 274.2267 14.80222600123986
IRIDIUM 174             
1 56728U 23068U   25246.87280689  .00001525  00000+0  23786-3 0  9995
2 56728  86.6080 113.4248 0001927  93.4886 266.6552 14.72266948123892
IRIDIUM 178             
1 56729U 23068V   25246.74844315  .00002778  00000+0  36197-3 0  9995
2 56729  86.6593 145.0710 0002498  89.9291 270.2217 14.80251841123996
IRIDIUM 179             
1 56730U 23068W   25246.81068706  .00002871  00000+0  37425-3 0  9996
2 56730  86.6843 153.1528 0002724  91.9654 268.1880 14.80248839124009
